NUSAT-1 (FRESCO)        
1 41557U 16033B   22125.07778071  .00015276  00000+0  47212-3 0  9993
2 41557  97.3858 222.7442 0012259 167.1306 316.3274 15.33538309330732
BEESAT-4                
1 41619U 16040W   22124.11411724  .00012472  00000+0  43400-3 0  9993
2 41619  97.2209 175.9574 0007965 270.8746  89.1582 15.29802028313941
CAS-2T & KS-1Q          
1 41847U 16066G   22124.45412691  .00000604  00000+0  10111-3 0  9992
2 41847  98.5538 189.1612 0363681 341.6679  17.1677 14.38526380288024
NAYIF-1 (EO-88)         
1 42017U 17008BX  22124.40076258  .00021136  00000+0  66135-3 0  9999
2 42017  97.2715 191.1925 0005932  60.1158 300.0673 15.33131063290326
ZHUHAI-1 02 (CAS-4B)    
1 42759U 17034B   22125.16646603  .00006140  00000+0  36791-3 0  9995
2 42759  43.0178 211.2374 0008702   6.4641  76.7275 15.11582749269802
ZHUHAI-1 01 (CAS-4A)    
1 42761U 17034D   22125.13753859  .00006038  00000+0  36109-3 0  9996
2 42761  43.0174 210.2140 0009618  10.2430  66.0699 15.11673343269800
MAX VALIER SAT          
1 42778U 17036P   22125.06297538  .00008828  00000+0  34315-3 0  9991
2 42778  97.2095 167.6669 0013072 117.7981 242.4585 15.26193366270281
RADFXSAT (FOX-1B)       
1 43017U 17073E   22124.93617785  .00004730  00000+0  36050-3 0  9990
2 43017  97.6792  20.9017 0249000 330.6928  28.0506 14.81094599240672
FOX-1D (AO-92)          
1 43137U 18004AC  22124.44285786  .00010295  00000+0  37380-3 0  9996
2 43137  97.3696 200.0206 0008935 150.8020 209.3721 15.28456479239628
DIWATA-2B               
1 43678U 18084H   22125.26329263  .00001602  00000+0  16332-3 0  9990
2 43678  97.9630 258.0419 0011253  71.0255 289.2190 14.92089270191414
ES'HAIL 2               
1 43700U 18090A   22124.77853056  .00000149  00000+0  00000+0 0  9996
2 43700   0.0275 121.1513 0002421 312.4932  95.0879  1.00275787 12599
FOX-1CLIFF (AO-95)      
1 43770U 18099N   22124.45485059  .00002792  00000+0  25218-3 0  9999
2 43770  97.6223 191.9478 0015421  67.2095 293.0754 14.96189299186433
ITASAT 1                
1 43786U 18099AE  22124.45288537  .00002305  00000+0  20811-3 0  9992
2 43786  97.6248 192.8395 0015887  59.9779 300.3017 14.96369619186472
JY1SAT (JO-97)          
1 43803U 18099AX  22125.15292181  .00005167  00000+0  45471-3 0  9998
2 43803  97.6221 193.2672 0016165  57.2052 303.0724 14.96826806186595
UWE-4                   
1 43880U 18111E   22125.18360818  .00004792  00000+0  41122-3 0  9996
2 43880  97.6708  32.2526 0013325 102.9802 257.2909 14.97881520181221
NEXUS (FO-99)           
1 43937U 19003F   22124.81215162  .00011473  00000+0  40035-3 0  9996
2 43937  97.1345 159.8844 0019178 312.6441  47.3183 15.29582212183301
PSAT2 (NO-104)          
1 44354U 19036R   22125.21680512  .00094885 -43793-5  94465-3 0  9993
2 44354  28.5264 116.7968 0250269 205.4477 153.3610 15.33945014158019
JAISAT-1                
1 44419U 19038F   22124.70388900  .00008404  00000+0  43208-3 0  9994
2 44419  97.6337  94.5083 0017338 284.8433  75.0879 15.16589094156424
DUCHIFAT-3              
1 44854U 19089C   22125.06549632  .00005257  00000+0  41227-3 0  9996
2 44854  36.9688 357.5059 0008281 240.2348 119.7589 15.00754898131410
CAS-6 (TO-108)          
1 44881U 19093C   22125.15600662  .00000867  00000+0  11674-3 0  9997
2 44881  97.8934 204.9860 0014372 332.1314  27.9124 14.81671491128367
RS-44 & BREEZE-KM R/B   
1 44909U 19096E   22124.80047518  .00000009  00000+0 -15737-4 0  9991
2 44909  82.5201 259.2726 0218201  61.9751 300.3234 12.79713204109924
ORBITAL FACTORY 2 (OF-2)
1 45113U 19071C   22124.43031178  .00034592  00000+0  77207-3 0  9998
2 45113  51.6394 275.6229 0009528   8.7527 351.3623 15.43175337126573
HUSKYSAT-1 (HO-107)     
1 45119U 19071J   22124.93172316  .00021138  00000+0  48656-3 0  9997
2 45119  51.6394 272.9499 0009456   7.7511 352.3619 15.42534266126643
BY70-2                  
1 45857U 20042B   22125.20992665  .00010036  00000+0  13573-2 0  9998
2 45857  97.9565 202.4846 0009090 248.5396 111.4499 14.79181460 99067
SALSAT                  
1 46495U 20068K   22124.66379587  .00002538  00000+0  18625-3 0  9998
2 46495  97.7259  65.9662 0017962  67.6725 292.6402 15.04275528 87606
BY70-3                  
1 46839U 20079N   22125.19521113  .00022254  00000+0  55757-3 0  9999
2 46839  97.2002 197.9100 0007675 129.6019 316.4309 15.40043284 83583
RADFXSAT-2 (AO-109)     
1 47311U 21002C   22124.66924517  .00007149  00000+0  29885-3 0  9997
2 47311  60.6839 166.9758 0011329 277.6699  82.3102 15.24511628 71788
UVSQ-SAT                
1 47438U 21006AB  22124.56837009  .00006528  00000+0  35109-3 0  9995
2 47438  97.4403 184.4879 0013493  72.0683 288.2019 15.15123505 70636
DIY-1 (ARDUIQUBE)       
1 47963U 21022AH  22124.22779161  .00017902  00000+0  10410-2 0  9998
2 47963  97.5352  26.1387 0015090 288.0938  71.8649 15.12031965 60264
XW-3 (CAS-9)            
1 50466U 21131B   22125.18567365  .00000310  00000+0  11603-3 0  9999
2 50466  98.5809 202.4584 0003242 275.6853  84.3964 14.38478842 18691
